[{"OBJECT_NAME":"STARLINK-3836","OBJECT_ID":"2022-051AT","EPOCH":"2026-03-09T11:09:28.167840","MEAN_MOTION":15.08847334,"ECCENTRICITY":0.00013357,"INCLINATION":53.2177,"RA_OF_ASC_NODE":135.1276,"ARG_OF_PERICENTER":88.8035,"MEAN_ANOMALY":271.311,"EPHEMERIS_TYPE":0,"CLASSIFICATION_TYPE":"U","NORAD_CAT_ID":52577,"ELEMENT_SET_NO":999,"REV_AT_EPOCH":21134,"BSTAR":0.00016827616,"MEAN_MOTION_DOT":2.392e-5,"MEAN_MOTION_DDOT":0},{"OBJECT_NAME":"COSMOS 2251 DEB","OBJECT_ID":"1993-036EU","EPOCH":"2026-03-09T14:44:02.306976","MEAN_MOTION":15.10275873,"ECCENTRICITY":0.0002082,"INCLINATION":74.0027,"RA_OF_ASC_NODE":262.4484,"ARG_OF_PERICENTER":258.1067,"MEAN_ANOMALY":101.9891,"EPHEMERIS_TYPE":0,"CLASSIFICATION_TYPE":"U","NORAD_CAT_ID":33939,"ELEMENT_SET_NO":999,"REV_AT_EPOCH":90059,"BSTAR":0.0040153,"MEAN_MOTION_DOT":0.00066338,"MEAN_MOTION_DDOT":0}]
